{"type": "FeatureCollection", "features": [{"type": "Feature", "geometry": {"type": "Point", "coordinates": [-53.26187481608271, 47.120007572653506]}, "properties": {"name": "Avalon", "geo_code": "10001", "source": "fed_boundaries_2023.geojson+fed_names_2023.json"}}, {"type": "Feature", "geometry": {"type": "Point", "coordinates": [-52.726832890130495, 47.5136204721562]}, "properties": {"name": "Cape Spear", "geo_code": "10002", "source": "fed_boundaries_2023.geojson+fed_names_2023.json"}}, {"type": "Feature", "geometry": {"type": "Point", "coordinates": [-55.74754092921987, 48.82858106916224]}, "properties": {"name": "Central Newfoundland", "geo_code": "10003", "source": "fed_boundaries_2023.geojson+fed_names_2023.json"}}, {"type": "Feature", "geometry": {"type": "Point", "coordinates": [-61.61857420268953, 54.47002853603629]}, "properties": {"name": "Labrador", "geo_code": "10004", "source": "fed_boundaries_2023.geojson+fed_names_2023.json"}}, {"type": "Feature", "geometry": {"type": "Point", "coordinates": [-57.37790913646318, 49.47482499171806]}, "properties": {"name": "Long Range Mountains", "geo_code": "10005", "source": "fed_boundaries_2023.geojson+fed_names_2023.json"}}, {"type": "Feature", "geometry": {"type": "Point", "coordinates": [-52.85783608191689, 47.67524276482055]}, "properties": {"name": "St. John's East", "geo_code": "10006", "source": "fed_boundaries_2023.geojson+fed_names_2023.json"}}, {"type": "Feature", "geometry": {"type": "Point", "coordinates": [-54.135062467822316, 48.06002905403438]}, "properties": {"name": "Terra Nova—The Peninsulas", "geo_code": "10007", "source": "fed_boundaries_2023.geojson+fed_names_2023.json"}}, {"type": "Feature", "geometry": {"type": "Point", "coordinates": [-62.644617746847814, 46.20422311968444]}, "properties": {"name": "Cardigan", "geo_code": "11001", "source": "fed_boundaries_2023.geojson+fed_names_2023.json"}}, {"type": "Feature", "geometry": {"type": "Point", "coordinates": [-63.134732529178734, 46.26598998505626]}, "properties": {"name": "Charlottetown", "geo_code": "11002", "source": "fed_boundaries_2023.geojson+fed_names_2023.json"}}, {"type": "Feature", "geometry": {"type": "Point", "coordinates": [-64.04876819390181, 46.641784986513336]}, "properties": {"name": "Egmont", "geo_code": "11003", "source": "fed_boundaries_2023.geojson+fed_names_2023.json"}}, {"type": "Feature", "geometry": {"type": "Point", "coordinates": [-63.41808097586601, 46.30972470732919]}, "properties": {"name": "Malpeque", "geo_code": "11004", "source": "fed_boundaries_2023.geojson+fed_names_2023.json"}}, {"type": "Feature", "geometry": {"type": "Point", "coordinates": [-65.62134703567644, 44.33198675696664]}, "properties": {"name": "Acadie—Annapolis", "geo_code": "12001", "source": "fed_boundaries_2023.geojson+fed_names_2023.json"}}, {"type": "Feature", "geometry": {"type": "Point", "coordinates": [-60.98008201207103, 45.96572369753634]}, "properties": {"name": "Cape Breton—Canso—Antigonish", "geo_code": "12002", "source": "fed_boundaries_2023.geojson+fed_names_2023.json"}}, {"type": "Feature", "geometry": {"type": "Point", "coordinates": [-62.655550005277945, 45.21207205519731]}, "properties": {"name": "Central Nova", "geo_code": "12003", "source": "fed_boundaries_2023.geojson+fed_names_2023.json"}}, {"type": "Feature", "geometry": {"type": "Point", "coordinates": [-63.82229887038637, 45.56942233168658]}, "properties": {"name": "Cumberland—Colchester", "geo_code": "12004", "source": "fed_boundaries_2023.geojson+fed_names_2023.json"}}, {"type": "Feature", "geometry": {"type": "Point", "coordinates": [-63.489385098600785, 44.63590013303028]}, "properties": {"name": "Dartmouth—Cole Harbour", "geo_code": "12005", "source": "fed_boundaries_2023.geojson+fed_names_2023.json"}}, {"type": "Feature", "geometry": {"type": "Point", "coordinates": [-59.950689222243234, 43.961973108033334]}, "properties": {"name": "Halifax", "geo_code": "12006", "source": "fed_boundaries_2023.geojson+fed_names_2023.json"}}, {"type": "Feature", "geometry": {"type": "Point", "coordinates": [-63.79980380063643, 44.58277084459276]}, "properties": {"name": "Halifax West", "geo_code": "12007", "source": "fed_boundaries_2023.geojson+fed_names_2023.json"}}, {"type": "Feature", "geometry": {"type": "Point", "coordinates": [-64.11213455197782, 45.08018206785652]}, "properties": {"name": "Kings—Hants", "geo_code": "12008", "source": "fed_boundaries_2023.geojson+fed_names_2023.json"}}, {"type": "Feature", "geometry": {"type": "Point", "coordinates": [-63.636904700388364, 44.8009374456503]}, "properties": {"name": "Sackville—Bedford—Preston", "geo_code": "12009", "source": "fed_boundaries_2023.geojson+fed_names_2023.json"}}, {"type": "Feature", "geometry": {"type": "Point", "coordinates": [-64.88302192392501, 44.14899913502598]}, "properties": {"name": "South Shore—St. Margarets", "geo_code": "12010", "source": "fed_boundaries_2023.geojson+fed_names_2023.json"}}, {"type": "Feature", "geometry": {"type": "Point", "coordinates": [-60.10746380440118, 46.18063967461918]}, "properties": {"name": "Sydney—Glace Bay", "geo_code": "12011", "source": "fed_boundaries_2023.geojson+fed_names_2023.json"}}, {"type": "Feature", "geometry": {"type": "Point", "coordinates": [-65.40207450336653, 47.622683856028736]}, "properties": {"name": "Acadie—Bathurst", "geo_code": "13001", "source": "fed_boundaries_2023.geojson+fed_names_2023.json"}}, {"type": "Feature", "geometry": {"type": "Point", "coordinates": [-64.55000408430826, 46.246861465414604]}, "properties": {"name": "Beauséjour", "geo_code": "13002", "source": "fed_boundaries_2023.geojson+fed_names_2023.json"}}, {"type": "Feature", "geometry": {"type": "Point", "coordinates": [-66.62012838662964, 45.93454391598482]}, "properties": {"name": "Fredericton—Oromocto", "geo_code": "13003", "source": "fed_boundaries_2023.geojson+fed_names_2023.json"}}, {"type": "Feature", "geometry": {"type": "Point", "coordinates": [-65.29471915973514, 45.76208307119618]}, "properties": {"name": "Fundy Royal", "geo_code": "13004", "source": "fed_boundaries_2023.geojson+fed_names_2023.json"}}, {"type": "Feature", "geometry": {"type": "Point", "coordinates": [-67.36732826521637, 47.61922856282937]}, "properties": {"name": "Madawaska—Restigouche", "geo_code": "13005", "source": "fed_boundaries_2023.geojson+fed_names_2023.json"}}, {"type": "Feature", "geometry": {"type": "Point", "coordinates": [-65.89153539619464, 46.76834307264913]}, "properties": {"name": "Miramichi—Grand Lake", "geo_code": "13006", "source": "fed_boundaries_2023.geojson+fed_names_2023.json"}}, {"type": "Feature", "geometry": {"type": "Point", "coordinates": [-64.81287035715832, 46.11375923916084]}, "properties": {"name": "Moncton—Dieppe", "geo_code": "13007", "source": "fed_boundaries_2023.geojson+fed_names_2023.json"}}, {"type": "Feature", "geometry": {"type": "Point", "coordinates": [-65.96712879894456, 45.321067617362374]}, "properties": {"name": "Saint John—Kennebecasis", "geo_code": "13008", "source": "fed_boundaries_2023.geojson+fed_names_2023.json"}}, {"type": "Feature", "geometry": {"type": "Point", "coordinates": [-66.60286879928623, 45.420909613269565]}, "properties": {"name": "Saint John—St. Croix", "geo_code": "13009", "source": "fed_boundaries_2023.geojson+fed_names_2023.json"}}, {"type": "Feature", "geometry": {"type": "Point", "coordinates": [-67.19410924181088, 46.429183442659586]}, "properties": {"name": "Tobique—Mactaquac", "geo_code": "13010", "source": "fed_boundaries_2023.geojson+fed_names_2023.json"}}, {"type": "Feature", "geometry": {"type": "Point", "coordinates": [-73.0954563215134, 55.8099351234147]}, "properties": {"name": "Abitibi—Baie-James—Nunavik—Eeyou", "geo_code": "24001", "source": "fed_boundaries_2023.geojson+fed_names_2023.json"}}, {"type": "Feature", "geometry": {"type": "Point", "coordinates": [-78.5338399942034, 47.79930286130546]}, "properties": {"name": "Abitibi—Témiscamingue", "geo_code": "24002", "source": "fed_boundaries_2023.geojson+fed_names_2023.json"}}, {"type": "Feature", "geometry": {"type": "Point", "coordinates": [-73.6841823383275, 45.54152805794035]}, "properties": {"name": "Ahuntsic-Cartierville", "geo_code": "24003", "source": "fed_boundaries_2023.geojson+fed_names_2023.json"}}, {"type": "Feature", "geometry": {"type": "Point", "coordinates": [-73.6601662884522, 45.64587954704748]}, "properties": {"name": "Alfred-Pellan", "geo_code": "24004", "source": "fed_boundaries_2023.geojson+fed_names_2023.json"}}, {"type": "Feature", "geometry": {"type": "Point", "coordinates": [-75.1141553306163, 45.793177733760224]}, "properties": {"name": "Argenteuil—La Petite-Nation", "geo_code": "24005", "source": "fed_boundaries_2023.geojson+fed_names_2023.json"}}, {"type": "Feature", "geometry": {"type": "Point", "coordinates": [-70.73403649578454, 46.157660906853444]}, "properties": {"name": "Beauce", "geo_code": "24006", "source": "fed_boundaries_2023.geojson+fed_names_2023.json"}}, {"type": "Feature", "geometry": {"type": "Point", "coordinates": [-74.19495618049116, 45.1942536997423]}, "properties": {"name": "Beauharnois—Salaberry—Soulanges—Huntingdon", "geo_code": "24007", "source": "fed_boundaries_2023.geojson+fed_names_2023.json"}}, {"type": "Feature", "geometry": {"type": "Point", "coordinates": [-71.19943388389903, 46.861669768800034]}, "properties": {"name": "Beauport—Limoilou", "geo_code": "24008", "source": "fed_boundaries_2023.geojson+fed_names_2023.json"}}, {"type": "Feature", "geometry": {"type": "Point", "coordinates": [-72.51394056003471, 46.19212208807435]}, "properties": {"name": "Bécancour—Nicolet—Saurel—Alnôbak", "geo_code": "24009", "source": "fed_boundaries_2023.geojson+fed_names_2023.json"}}, {"type": "Feature", "geometry": {"type": "Point", "coordinates": [-70.60545477753996, 46.58747366919768]}, "properties": {"name": "Bellechasse—Les Etchemins—Lévis", "geo_code": "24010", "source": "fed_boundaries_2023.geojson+fed_names_2023.json"}}, {"type": "Feature", "geometry": {"type": "Point", "coordinates": [-73.18698246251411, 45.48659551793234]}, "properties": {"name": "Beloeil—Chambly", "geo_code": "24011", "source": "fed_boundaries_2023.geojson+fed_names_2023.json"}}, {"type": "Feature", "geometry": {"type": "Point", "coordinates": [-73.17785180636918, 46.3952937846285]}, "properties": {"name": "Berthier—Maskinongé", "geo_code": "24012", "source": "fed_boundaries_2023.geojson+fed_names_2023.json"}}, {"type": "Feature", "geometry": {"type": "Point", "coordinates": [-73.63423904457254, 45.598788935093935]}, "properties": {"name": "Bourassa", "geo_code": "24013", "source": "fed_boundaries_2023.geojson+fed_names_2023.json"}}, {"type": "Feature", "geometry": {"type": "Point", "coordinates": [-72.65162600168513, 45.1777736780733]}, "properties": {"name": "Brome—Missisquoi", "geo_code": "24014", "source": "fed_boundaries_2023.geojson+fed_names_2023.json"}}, {"type": "Feature", "geometry": {"type": "Point", "coordinates": [-73.4633545031789, 45.45433321183444]}, "properties": {"name": "Brossard—Saint-Lambert", "geo_code": "24015", "source": "fed_boundaries_2023.geojson+fed_names_2023.json"}}, {"type": "Feature", "geometry": {"type": "Point", "coordinates": [-71.3350379298769, 46.90147810283063]}, "properties": {"name": "Charlesbourg—Haute-Saint-Charles", "geo_code": "24016", "source": "fed_boundaries_2023.geojson+fed_names_2023.json"}}, {"type": "Feature", "geometry": {"type": "Point", "coordinates": [-73.65632345663434, 45.164287208036995]}, "properties": {"name": "Châteauguay—Les Jardins-de-Napierville", "geo_code": "24017", "source": "fed_boundaries_2023.geojson+fed_names_2023.json"}}, {"type": "Feature", "geometry": {"type": "Point", "coordinates": [-70.65497576107965, 48.30413150296636]}, "properties": {"name": "Chicoutimi—Le Fjord", "geo_code": "24018", "source": "fed_boundaries_2023.geojson+fed_names_2023.json"}}, {"type": "Feature", "geometry": {"type": "Point", "coordinates": [-71.66047155439715, 45.34701075440106]}, "properties": {"name": "Compton—Stanstead", "geo_code": "24019", "source": "fed_boundaries_2023.geojson+fed_names_2023.json"}}, {"type": "Feature", "geometry": {"type": "Point", "coordinates": [-69.57730221683997, 47.407796759801116]}, "properties": {"name": "Côte-du-Sud—Rivière-du-Loup—Kataskomiq—Témiscouata", "geo_code": "24020", "source": "fed_boundaries_2023.geojson+fed_names_2023.json"}}, {"type": "Feature", "geometry": {"type": "Point", "coordinates": [-65.42049652535589, 51.24611090948025]}, "properties": {"name": "Côte-Nord—Kawawachikamach—Nitassinan", "geo_code": "24021", "source": "fed_boundaries_2023.geojson+fed_names_2023.json"}}, {"type": "Feature", "geometry": {"type": "Point", "coordinates": [-73.70889078420039, 45.44525580622345]}, "properties": {"name": "Dorval—Lachine—LaSalle", "geo_code": "24022", "source": "fed_boundaries_2023.geojson+fed_names_2023.json"}}, {"type": "Feature", "geometry": {"type": "Point", "coordinates": [-72.47083807113378, 45.857624807546834]}, "properties": {"name": "Drummond", "geo_code": "24023", "source": "fed_boundaries_2023.geojson+fed_names_2023.json"}}, {"type": "Feature", "geometry": {"type": "Point", "coordinates": [-65.91095053514258, 48.64328178427009]}, "properties": {"name": "Gaspésie—Les Îles-de-la-Madeleine—Listuguj", "geo_code": "24024", "source": "fed_boundaries_2023.geojson+fed_names_2023.json"}}, {"type": "Feature", "geometry": {"type": "Point", "coordinates": [-75.66815112356423, 45.49664632032628]}, "properties": {"name": "Gatineau", "geo_code": "24025", "source": "fed_boundaries_2023.geojson+fed_names_2023.json"}}, {"type": "Feature", "geometry": {"type": "Point", "coordinates": [-73.54297472910734, 45.56420239617546]}, "properties": {"name": "Hochelaga—Rosemont-Est", "geo_code": "24026", "source": "fed_boundaries_2023.geojson+fed_names_2023.json"}}, {"type": "Feature", "geometry": {"type": "Point", "coordinates": [-73.56542115544299, 45.63869274665028]}, "properties": {"name": "Honoré-Mercier", "geo_code": "24027", "source": "fed_boundaries_2023.geojson+fed_names_2023.json"}}, {"type": "Feature", "geometry": {"type": "Point", "coordinates": [-75.78546579334628, 45.42363191700093]}, "properties": {"name": "Hull—Aylmer", "geo_code": "24028", "source": "fed_boundaries_2023.geojson+fed_names_2023.json"}}, {"type": "Feature", "geometry": {"type": "Point", "coordinates": [-73.9795969342902, 46.70783561406918]}, "properties": {"name": "Joliette—Manawan", "geo_code": "24029", "source": "fed_boundaries_2023.geojson+fed_names_2023.json"}}, {"type": "Feature", "geometry": {"type": "Point", "coordinates": [-70.9874872916764, 50.21088683819489]}, "properties": {"name": "Jonquière", "geo_code": "24030", "source": "fed_boundaries_2023.geojson+fed_names_2023.json"}}, {"type": "Feature", "geometry": {"type": "Point", "coordinates": [-73.5131880098753, 45.63750943829786]}, "properties": {"name": "La Pointe-de-l'Île", "geo_code": "24031", "source": "fed_boundaries_2023.geojson+fed_names_2023.json"}}, {"type": "Feature", "geometry": {"type": "Point", "coordinates": [-73.54656510835058, 45.36600799774698]}, "properties": {"name": "La Prairie—Atateken", "geo_code": "24032", "source": "fed_boundaries_2023.geojson+fed_names_2023.json"}}, {"type": "Feature", "geometry": {"type": "Point", "coordinates": [-72.93411720690068, 49.300674746704054]}, "properties": {"name": "Lac-Saint-Jean", "geo_code": "24033", "source": "fed_boundaries_2023.geojson+fed_names_2023.json"}}, {"type": "Feature", "geometry": {"type": "Point", "coordinates": [-73.8791203994645, 45.43861574886994]}, "properties": {"name": "Lac-Saint-Louis", "geo_code": "24034", "source": "fed_boundaries_2023.geojson+fed_names_2023.json"}}, {"type": "Feature", "geometry": {"type": "Point", "coordinates": [-73.58412111777866, 45.43764930836366]}, "properties": {"name": "LaSalle—Émard—Verdun", "geo_code": "24035", "source": "fed_boundaries_2023.geojson+fed_names_2023.json"}}, {"type": "Feature", "geometry": {"type": "Point", "coordinates": [-75.0702197157352, 46.77685408553783]}, "properties": {"name": "Laurentides—Labelle", "geo_code": "24036", "source": "fed_boundaries_2023.geojson+fed_names_2023.json"}}, {"type": "Feature", "geometry": {"type": "Point", "coordinates": [-73.55096587083167, 45.516334756142534]}, "properties": {"name": "Laurier—Sainte-Marie", "geo_code": "24037", "source": "fed_boundaries_2023.geojson+fed_names_2023.json"}}, {"type": "Feature", "geometry": {"type": "Point", "coordinates": [-73.82201807269935, 45.53890447085682]}, "properties": {"name": "Laval—Les Îles", "geo_code": "24038", "source": "fed_boundaries_2023.geojson+fed_names_2023.json"}}, {"type": "Feature", "geometry": {"type": "Point", "coordinates": [-74.12696518125594, 45.938566353638926]}, "properties": {"name": "Les Pays-d'en-Haut", "geo_code": "24039", "source": "fed_boundaries_2023.geojson+fed_names_2023.json"}}, {"type": "Feature", "geometry": {"type": "Point", "coordinates": [-71.33299157289223, 46.55767832812728]}, "properties": {"name": "Lévis—Lotbinière", "geo_code": "24040", "source": "fed_boundaries_2023.geojson+fed_names_2023.json"}}, {"type": "Feature", "geometry": {"type": "Point", "coordinates": [-73.44978024106486, 45.488973535821145]}, "properties": {"name": "Longueuil—Charles-LeMoyne", "geo_code": "24041", "source": "fed_boundaries_2023.geojson+fed_names_2023.json"}}, {"type": "Feature", "geometry": {"type": "Point", "coordinates": [-73.45205520280653, 45.53796206045776]}, "properties": {"name": "Longueuil—Saint-Hubert", "geo_code": "24042", "source": "fed_boundaries_2023.geojson+fed_names_2023.json"}}, {"type": "Feature", "geometry": {"type": "Point", "coordinates": [-71.36412176074073, 46.77942591293382]}, "properties": {"name": "Louis-Hébert", "geo_code": "24043", "source": "fed_boundaries_2023.geojson+fed_names_2023.json"}}, {"type": "Feature", "geometry": {"type": "Point", "coordinates": [-71.41955368042501, 46.846061930536735]}, "properties": {"name": "Louis-Saint-Laurent—Akiawenhrahk", "geo_code": "24044", "source": "fed_boundaries_2023.geojson+fed_names_2023.json"}}, {"type": "Feature", "geometry": {"type": "Point", "coordinates": [-73.77619581796606, 45.60139073831173]}, "properties": {"name": "Marc-Aurèle-Fortin", "geo_code": "24045", "source": "fed_boundaries_2023.geojson+fed_names_2023.json"}}, {"type": "Feature", "geometry": {"type": "Point", "coordinates": [-71.28558452833276, 45.99155042906337]}, "properties": {"name": "Mégantic—L’Érable—Lotbinière", "geo_code": "24046", "source": "fed_boundaries_2023.geojson+fed_names_2023.json"}}, {"type": "Feature", "geometry": {"type": "Point", "coordinates": [-74.06533911403498, 45.6054288559692]}, "properties": {"name": "Mirabel", "geo_code": "24047", "source": "fed_boundaries_2023.geojson+fed_names_2023.json"}}, {"type": "Feature", "geometry": {"type": "Point", "coordinates": [-73.65472973680814, 45.49010606785228]}, "properties": {"name": "Mount Royal", "geo_code": "24048", "source": "fed_boundaries_2023.geojson+fed_names_2023.json"}}, {"type": "Feature", "geometry": {"type": "Point", "coordinates": [-73.32886253721632, 45.517253740862685]}, "properties": {"name": "Mont-Saint-Bruno—L’Acadie", "geo_code": "24049", "source": "fed_boundaries_2023.geojson+fed_names_2023.json"}}, {"type": "Feature", "geometry": {"type": "Point", "coordinates": [-73.64073615719404, 45.889023256357916]}, "properties": {"name": "Montcalm", "geo_code": "24050", "source": "fed_boundaries_2023.geojson+fed_names_2023.json"}}, {"type": "Feature", "geometry": {"type": "Point", "coordinates": [-70.81202434720342, 47.60495321994258]}, "properties": {"name": "Montmorency—Charlevoix", "geo_code": "24051", "source": "fed_boundaries_2023.geojson+fed_names_2023.json"}}, {"type": "Feature", "geometry": {"type": "Point", "coordinates": [-73.61875937176386, 45.4737032908412]}, "properties": {"name": "Notre-Dame-de-Grâce—Westmount", "geo_code": "24052", "source": "fed_boundaries_2023.geojson+fed_names_2023.json"}}, {"type": "Feature", "geometry": {"type": "Point", "coordinates": [-73.60877938311764, 45.5118273857266]}, "properties": {"name": "Outremont", "geo_code": "24053", "source": "fed_boundaries_2023.geojson+fed_names_2023.json"}}, {"type": "Feature", "geometry": {"type": "Point", "coordinates": [-73.61836617066473, 45.546599490596364]}, "properties": {"name": "Papineau", "geo_code": "24054", "source": "fed_boundaries_2023.geojson+fed_names_2023.json"}}, {"type": "Feature", "geometry": {"type": "Point", "coordinates": [-73.27405393687488, 45.71589755309363]}, "properties": {"name": "Pierre-Boucher—Les Patriotes—Verchères", "geo_code": "24055", "source": "fed_boundaries_2023.geojson+fed_names_2023.json"}}, {"type": "Feature", "geometry": {"type": "Point", "coordinates": [-73.86241872964041, 45.4952532478455]}, "properties": {"name": "Pierrefonds—Dollard", "geo_code": "24056", "source": "fed_boundaries_2023.geojson+fed_names_2023.json"}}, {"type": "Feature", "geometry": {"type": "Point", "coordinates": [-76.59723877452102, 46.61702171694038]}, "properties": {"name": "Pontiac—Kitigan Zibi", "geo_code": "24057", "source": "fed_boundaries_2023.geojson+fed_names_2023.json"}}, {"type": "Feature", "geometry": {"type": "Point", "coordinates": [-71.88035949270443, 47.12476785729263]}, "properties": {"name": "Portneuf—Jacques-Cartier", "geo_code": "24058", "source": "fed_boundaries_2023.geojson+fed_names_2023.json"}}, {"type": "Feature", "geometry": {"type": "Point", "coordinates": [-71.2617944239041, 46.80597576675915]}, "properties": {"name": "Québec Centre", "geo_code": "24059", "source": "fed_boundaries_2023.geojson+fed_names_2023.json"}}, {"type": "Feature", "geometry": {"type": "Point", "coordinates": [-73.44621685532728, 45.80357650904573]}, "properties": {"name": "Repentigny", "geo_code": "24060", "source": "fed_boundaries_2023.geojson+fed_names_2023.json"}}, {"type": "Feature", "geometry": {"type": "Point", "coordinates": [-71.94087038343908, 45.85359623097695]}, "properties": {"name": "Richmond—Arthabaska", "geo_code": "24061", "source": "fed_boundaries_2023.geojson+fed_names_2023.json"}}, {"type": "Feature", "geometry": {"type": "Point", "coordinates": [-67.91097693762298, 48.355161895928354]}, "properties": {"name": "Rimouski—La Matapédia", "geo_code": "24062", "source": "fed_boundaries_2023.geojson+fed_names_2023.json"}}, {"type": "Feature", "geometry": {"type": "Point", "coordinates": [-73.88611505876328, 45.59664581958275]}, "properties": {"name": "Rivière-des-Mille-Îles", "geo_code": "24063", "source": "fed_boundaries_2023.geojson+fed_names_2023.json"}}, {"type": "Feature", "geometry": {"type": "Point", "coordinates": [-73.92527576891642, 45.7983067030563]}, "properties": {"name": "Rivière-du-Nord", "geo_code": "24064", "source": "fed_boundaries_2023.geojson+fed_names_2023.json"}}, {"type": "Feature", "geometry": {"type": "Point", "coordinates": [-73.58685750517267, 45.54568322385577]}, "properties": {"name": "Rosemont—La Petite-Patrie", "geo_code": "24065", "source": "fed_boundaries_2023.geojson+fed_names_2023.json"}}, {"type": "Feature", "geometry": {"type": "Point", "coordinates": [-72.79341488218523, 45.65615590506466]}, "properties": {"name": "Saint-Hyacinthe—Bagot—Acton", "geo_code": "24066", "source": "fed_boundaries_2023.geojson+fed_names_2023.json"}}, {"type": "Feature", "geometry": {"type": "Point", "coordinates": [-73.24017413828086, 45.25435211715384]}, "properties": {"name": "Saint-Jean", "geo_code": "24067", "source": "fed_boundaries_2023.geojson+fed_names_2023.json"}}, {"type": "Feature", "geometry": {"type": "Point", "coordinates": [-73.71139978838019, 45.499085940283805]}, "properties": {"name": "Saint-Laurent", "geo_code": "24068", "source": "fed_boundaries_2023.geojson+fed_names_2023.json"}}, {"type": "Feature", "geometry": {"type": "Point", "coordinates": [-73.60456723617233, 45.58190539180009]}, "properties": {"name": "Saint-Léonard—Saint-Michel", "geo_code": "24069", "source": "fed_boundaries_2023.geojson+fed_names_2023.json"}}, {"type": "Feature", "geometry": {"type": "Point", "coordinates": [-73.81153460052933, 47.81457371376596]}, "properties": {"name": "Saint-Maurice—Champlain", "geo_code": "24070", "source": "fed_boundaries_2023.geojson+fed_names_2023.json"}}, {"type": "Feature", "geometry": {"type": "Point", "coordinates": [-72.62939138149353, 45.42860847411543]}, "properties": {"name": "Shefford", "geo_code": "24071", "source": "fed_boundaries_2023.geojson+fed_names_2023.json"}}, {"type": "Feature", "geometry": {"type": "Point", "coordinates": [-71.90243078968561, 45.40731516626698]}, "properties": {"name": "Sherbrooke", "geo_code": "24072", "source": "fed_boundaries_2023.geojson+fed_names_2023.json"}}, {"type": "Feature", "geometry": {"type": "Point", "coordinates": [-73.68265590041457, 45.73286651610309]}, "properties": {"name": "Terrebonne", "geo_code": "24073", "source": "fed_boundaries_2023.geojson+fed_names_2023.json"}}, {"type": "Feature", "geometry": {"type": "Point", "coordinates": [-73.84004924112665, 45.677528488653245]}, "properties": {"name": "Thérèse-De Blainville", "geo_code": "24074", "source": "fed_boundaries_2023.geojson+fed_names_2023.json"}}, {"type": "Feature", "geometry": {"type": "Point", "coordinates": [-72.60989482809616, 46.35722184333814]}, "properties": {"name": "Trois-Rivières", "geo_code": "24075", "source": "fed_boundaries_2023.geojson+fed_names_2023.json"}}, {"type": "Feature", "geometry": {"type": "Point", "coordinates": [-74.13000346399431, 45.42629521776223]}, "properties": {"name": "Vaudreuil", "geo_code": "24076", "source": "fed_boundaries_2023.geojson+fed_names_2023.json"}}, {"type": "Feature", "geometry": {"type": "Point", "coordinates": [-73.55332125010852, 45.474929471042124]}, "properties": {"name": "Ville-Marie—Le Sud-Ouest—Île-des-Soeurs", "geo_code": "24077", "source": "fed_boundaries_2023.geojson+fed_names_2023.json"}}, {"type": "Feature", "geometry": {"type": "Point", "coordinates": [-73.73541115863074, 45.55991733152195]}, "properties": {"name": "Vimy", "geo_code": "24078", "source": "fed_boundaries_2023.geojson+fed_names_2023.json"}}, {"type": "Feature", "geometry": {"type": "Point", "coordinates": [-79.02753134192518, 43.869017379754276]}, "properties": {"name": "Ajax", "geo_code": "35001", "source": "fed_boundaries_2023.geojson+fed_names_2023.json"}}, {"type": "Feature", "geometry": {"type": "Point", "coordinates": [-77.54522420039484, 45.67983599558841]}, "properties": {"name": "Algonquin—Renfrew—Pembroke", "geo_code": "35002", "source": "fed_boundaries_2023.geojson+fed_names_2023.json"}}, {"type": "Feature", "geometry": {"type": "Point", "coordinates": [-79.43960569695498, 43.952993502158236]}, "properties": {"name": "Aurora—Oak Ridges—Richmond Hill", "geo_code": "35003", "source": "fed_boundaries_2023.geojson+fed_names_2023.json"}}, {"type": "Feature", "geometry": {"type": "Point", "coordinates": [-79.61685938075554, 44.29301407786631]}, "properties": {"name": "Barrie South—Innisfil", "geo_code": "35004", "source": "fed_boundaries_2023.geojson+fed_names_2023.json"}}, {"type": "Feature", "geometry": {"type": "Point", "coordinates": [-79.67932551152504, 44.517164087725384]}, "properties": {"name": "Barrie—Springwater—Oro-Medonte", "geo_code": "35005", "source": "fed_boundaries_2023.geojson+fed_names_2023.json"}}, {"type": "Feature", "geometry": {"type": "Point", "coordinates": [-77.18821472213205, 44.002281910817764]}, "properties": {"name": "Bay of Quinte", "geo_code": "35006", "source": "fed_boundaries_2023.geojson+fed_names_2023.json"}}, {"type": "Feature", "geometry": {"type": "Point", "coordinates": [-79.30650202300707, 43.68745410441129]}, "properties": {"name": "Beaches—East York", "geo_code": "35007", "source": "fed_boundaries_2023.geojson+fed_names_2023.json"}}, {"type": "Feature", "geometry": {"type": "Point", "coordinates": [-78.7779988084898, 43.97254026942389]}, "properties": {"name": "Bowmanville—Oshawa North", "geo_code": "35008", "source": "fed_boundaries_2023.geojson+fed_names_2023.json"}}, {"type": "Feature", "geometry": {"type": "Point", "coordinates": [-79.75500956368077, 43.68982046099926]}, "properties": {"name": "Brampton Centre", "geo_code": "35009", "source": "fed_boundaries_2023.geojson+fed_names_2023.json"}}, {"type": "Feature", "geometry": {"type": "Point", "coordinates": [-79.71914292120798, 43.717011291686646]}, "properties": {"name": "Brampton—Chinguacousy Park", "geo_code": "35010", "source": "fed_boundaries_2023.geojson+fed_names_2023.json"}}, {"type": "Feature", "geometry": {"type": "Point", "coordinates": [-79.69718674267467, 43.77476168863465]}, "properties": {"name": "Brampton East", "geo_code": "35011", "source": "fed_boundaries_2023.geojson+fed_names_2023.json"}}, {"type": "Feature", "geometry": {"type": "Point", "coordinates": [-79.82660895920304, 43.763227332013805]}, "properties": {"name": "Brampton North—Caledon", "geo_code": "35012", "source": "fed_boundaries_2023.geojson+fed_names_2023.json"}}, {"type": "Feature", "geometry": {"type": "Point", "coordinates": [-79.78012295254983, 43.645954970003665]}, "properties": {"name": "Brampton South", "geo_code": "35013", "source": "fed_boundaries_2023.geojson+fed_names_2023.json"}}, {"type": "Feature", "geometry": {"type": "Point", "coordinates": [-79.83620943770237, 43.68796276977325]}, "properties": {"name": "Brampton West", "geo_code": "35014", "source": "fed_boundaries_2023.geojson+fed_names_2023.json"}}, {"type": "Feature", "geometry": {"type": "Point", "coordinates": [-80.28412571698472, 43.091006830848045]}, "properties": {"name": "Brantford—Brant South—Six Nations", "geo_code": "35015", "source": "fed_boundaries_2023.geojson+fed_names_2023.json"}}, {"type": "Feature", "geometry": {"type": "Point", "coordinates": [-80.9802254009323, 44.697140071075]}, "properties": {"name": "Bruce—Grey—Owen Sound", "geo_code": "35016", "source": "fed_boundaries_2023.geojson+fed_names_2023.json"}}, {"type": "Feature", "geometry": {"type": "Point", "coordinates": [-79.81785766883631, 43.33945364300745]}, "properties": {"name": "Burlington", "geo_code": "35017", "source": "fed_boundaries_2023.geojson+fed_names_2023.json"}}, {"type": "Feature", "geometry": {"type": "Point", "coordinates": [-79.9547758662022, 43.484857780525566]}, "properties": {"name": "Burlington North—Milton West", "geo_code": "35018", "source": "fed_boundaries_2023.geojson+fed_names_2023.json"}}, {"type": "Feature", "geometry": {"type": "Point", "coordinates": [-80.35009153300794, 43.3427119595344]}, "properties": {"name": "Cambridge", "geo_code": "35019", "source": "fed_boundaries_2023.geojson+fed_names_2023.json"}}, {"type": "Feature", "geometry": {"type": "Point", "coordinates": [-75.84524476124047, 45.248096687286115]}, "properties": {"name": "Carleton", "geo_code": "35020", "source": "fed_boundaries_2023.geojson+fed_names_2023.json"}}, {"type": "Feature", "geometry": {"type": "Point", "coordinates": [-82.25262815276074, 42.2738316410067]}, "properties": {"name": "Chatham-Kent—Leamington", "geo_code": "35021", "source": "fed_boundaries_2023.geojson+fed_names_2023.json"}}, {"type": "Feature", "geometry": {"type": "Point", "coordinates": [-79.44674714961407, 43.67199538473525]}, "properties": {"name": "Davenport", "geo_code": "35022", "source": "fed_boundaries_2023.geojson+fed_names_2023.json"}}, {"type": "Feature", "geometry": {"type": "Point", "coordinates": [-79.37005189652997, 43.778860895122484]}, "properties": {"name": "Don Valley North", "geo_code": "35023", "source": "fed_boundaries_2023.geojson+fed_names_2023.json"}}, {"type": "Feature", "geometry": {"type": "Point", "coordinates": [-79.36269653895931, 43.7252728655738]}, "properties": {"name": "Don Valley West", "geo_code": "35024", "source": "fed_boundaries_2023.geojson+fed_names_2023.json"}}, {"type": "Feature", "geometry": {"type": "Point", "coordinates": [-80.12388230016008, 43.99581028635377]}, "properties": {"name": "Dufferin—Caledon", "geo_code": "35025", "source": "fed_boundaries_2023.geojson+fed_names_2023.json"}}, {"type": "Feature", "geometry": {"type": "Point", "coordinates": [-79.4338068666996, 43.71833499833998]}, "properties": {"name": "Eglinton—Lawrence", "geo_code": "35026", "source": "fed_boundaries_2023.geojson+fed_names_2023.json"}}, {"type": "Feature", "geometry": {"type": "Point", "coordinates": [-81.20860640176541, 42.67194785659925]}, "properties": {"name": "Elgin—St. Thomas—London South", "geo_code": "35027", "source": "fed_boundaries_2023.geojson+fed_names_2023.json"}}, {"type": "Feature", "geometry": {"type": "Point", "coordinates": [-82.80862540933063, 42.10250956378418]}, "properties": {"name": "Essex", "geo_code": "35028", "source": "fed_boundaries_2023.geojson+fed_names_2023.json"}}, {"type": "Feature", "geometry": {"type": "Point", "coordinates": [-79.55526542021454, 43.65861742356856]}, "properties": {"name": "Etobicoke Centre", "geo_code": "35029", "source": "fed_boundaries_2023.geojson+fed_names_2023.json"}}, {"type": "Feature", "geometry": {"type": "Point", "coordinates": [-79.51567585312647, 43.61344280306728]}, "properties": {"name": "Etobicoke—Lakeshore", "geo_code": "35030", "source": "fed_boundaries_2023.geojson+fed_names_2023.json"}}, {"type": "Feature", "geometry": {"type": "Point", "coordinates": [-79.58371827659235, 43.719727362665076]}, "properties": {"name": "Etobicoke North", "geo_code": "35031", "source": "fed_boundaries_2023.geojson+fed_names_2023.json"}}, {"type": "Feature", "geometry": {"type": "Point", "coordinates": [-80.06238532915496, 43.253286639951035]}, "properties": {"name": "Flamborough—Glanbrook—Brant North", "geo_code": "35032", "source": "fed_boundaries_2023.geojson+fed_names_2023.json"}}, {"type": "Feature", "geometry": {"type": "Point", "coordinates": [-80.24947808578186, 43.544920353520915]}, "properties": {"name": "Guelph", "geo_code": "35033", "source": "fed_boundaries_2023.geojson+fed_names_2023.json"}}, {"type": "Feature", "geometry": {"type": "Point", "coordinates": [-80.15207024167437, 42.79819764811019]}, "properties": {"name": "Haldimand—Norfolk", "geo_code": "35034", "source": "fed_boundaries_2023.geojson+fed_names_2023.json"}}, {"type": "Feature", "geometry": {"type": "Point", "coordinates": [-78.57138752475991, 44.82950619982364]}, "properties": {"name": "Haliburton—Kawartha Lakes", "geo_code": "35035", "source": "fed_boundaries_2023.geojson+fed_names_2023.json"}}, {"type": "Feature", "geometry": {"type": "Point", "coordinates": [-79.83752594101763, 43.26439665112532]}, "properties": {"name": "Hamilton Centre", "geo_code": "35036", "source": "fed_boundaries_2023.geojson+fed_names_2023.json"}}, {"type": "Feature", "geometry": {"type": "Point", "coordinates": [-79.74480743337588, 43.22299551703893]}, "properties": {"name": "Hamilton East—Stoney Creek", "geo_code": "35037", "source": "fed_boundaries_2023.geojson+fed_names_2023.json"}}, {"type": "Feature", "geometry": {"type": "Point", "coordinates": [-79.85892377027726, 43.21372692906243]}, "properties": {"name": "Hamilton Mountain", "geo_code": "35038", "source": "fed_boundaries_2023.geojson+fed_names_2023.json"}}, {"type": "Feature", "geometry": {"type": "Point", "coordinates": [-79.9698932144249, 43.23407909718151]}, "properties": {"name": "Hamilton West—Ancaster—Dundas", "geo_code": "35039", "source": "fed_boundaries_2023.geojson+fed_names_2023.json"}}, {"type": "Feature", "geometry": {"type": "Point", "coordinates": [-77.40435757988809, 44.69747270694315]}, "properties": {"name": "Hastings—Lennox and Addington—Tyendinaga", "geo_code": "35040", "source": "fed_boundaries_2023.geojson+fed_names_2023.json"}}, {"type": "Feature", "geometry": {"type": "Point", "coordinates": [-79.53025351866081, 43.75078291396512]}, "properties": {"name": "Humber River—Black Creek", "geo_code": "35041", "source": "fed_boundaries_2023.geojson+fed_names_2023.json"}}, {"type": "Feature", "geometry": {"type": "Point", "coordinates": [-81.41848290233659, 43.87770875879402]}, "properties": {"name": "Huron—Bruce", "geo_code": "35042", "source": "fed_boundaries_2023.geojson+fed_names_2023.json"}}, {"type": "Feature", "geometry": {"type": "Point", "coordinates": [-75.94123248038505, 45.335775727470285]}, "properties": {"name": "Kanata", "geo_code": "35043", "source": "fed_boundaries_2023.geojson+fed_names_2023.json"}}, {"type": "Feature", "geometry": {"type": "Point", "coordinates": [-83.15615456952327, 51.49017728027073]}, "properties": {"name": "Kapuskasing—Timmins—Mushkegowuk", "geo_code": "35044", "source": "fed_boundaries_2023.geojson+fed_names_2023.json"}}, {"type": "Feature", "geometry": {"type": "Point", "coordinates": [-91.13502439814042, 52.76049909180225]}, "properties": {"name": "Kenora—Kiiwetinoong", "geo_code": "35045", "source": "fed_boundaries_2023.geojson+fed_names_2023.json"}}, {"type": "Feature", "geometry": {"type": "Point", "coordinates": [-76.42911768584432, 44.25078951481645]}, "properties": {"name": "Kingston and the Islands", "geo_code": "35046", "source": "fed_boundaries_2023.geojson+fed_names_2023.json"}}, {"type": "Feature", "geometry": {"type": "Point", "coordinates": [-79.600528900737, 43.94682807109195]}, "properties": {"name": "King—Vaughan", "geo_code": "35047", "source": "fed_boundaries_2023.geojson+fed_names_2023.json"}}, {"type": "Feature", "geometry": {"type": "Point", "coordinates": [-80.46846106638155, 43.455444595318404]}, "properties": {"name": "Kitchener Centre", "geo_code": "35048", "source": "fed_boundaries_2023.geojson+fed_names_2023.json"}}, {"type": "Feature", "geometry": {"type": "Point", "coordinates": [-80.61206943642505, 43.50153559959942]}, "properties": {"name": "Kitchener—Conestoga", "geo_code": "35049", "source": "fed_boundaries_2023.geojson+fed_names_2023.json"}}, {"type": "Feature", "geometry": {"type": "Point", "coordinates": [-80.40108527299687, 43.41620778452937]}, "properties": {"name": "Kitchener South—Hespeler", "geo_code": "35050", "source": "fed_boundaries_2023.geojson+fed_names_2023.json"}}, {"type": "Feature", "geometry": {"type": "Point", "coordinates": [-76.56105233230737, 44.88648951686166]}, "properties": {"name": "Lanark—Frontenac", "geo_code": "35051", "source": "fed_boundaries_2023.geojson+fed_names_2023.json"}}, {"type": "Feature", "geometry": {"type": "Point", "coordinates": [-75.91929628646932, 44.68527866349083]}, "properties": {"name": "Leeds—Grenville—Thousand Islands—Rideau Lakes", "geo_code": "35052", "source": "fed_boundaries_2023.geojson+fed_names_2023.json"}}, {"type": "Feature", "geometry": {"type": "Point", "coordinates": [-81.25292919878656, 43.000893896849014]}, "properties": {"name": "London Centre", "geo_code": "35053", "source": "fed_boundaries_2023.geojson+fed_names_2023.json"}}, {"type": "Feature", "geometry": {"type": "Point", "coordinates": [-81.17859838577738, 42.98736450713111]}, "properties": {"name": "London—Fanshawe", "geo_code": "35054", "source": "fed_boundaries_2023.geojson+fed_names_2023.json"}}, {"type": "Feature", "geometry": {"type": "Point", "coordinates": [-81.3240295131609, 42.967952135188845]}, "properties": {"name": "London West", "geo_code": "35055", "source": "fed_boundaries_2023.geojson+fed_names_2023.json"}}, {"type": "Feature", "geometry": {"type": "Point", "coordinates": [-79.24230765604767, 43.9220569165597]}, "properties": {"name": "Markham—Stouffville", "geo_code": "35056", "source": "fed_boundaries_2023.geojson+fed_names_2023.json"}}, {"type": "Feature", "geometry": {"type": "Point", "coordinates": [-79.28816201893999, 43.842777384095214]}, "properties": {"name": "Markham—Thornhill", "geo_code": "35057", "source": "fed_boundaries_2023.geojson+fed_names_2023.json"}}, {"type": "Feature", "geometry": {"type": "Point", "coordinates": [-79.32809853788507, 43.89507200704403]}, "properties": {"name": "Markham—Unionville", "geo_code": "35058", "source": "fed_boundaries_2023.geojson+fed_names_2023.json"}}, {"type": "Feature", "geometry": {"type": "Point", "coordinates": [-81.48677166383774, 43.00161719891058]}, "properties": {"name": "Middlesex—London", "geo_code": "35059", "source": "fed_boundaries_2023.geojson+fed_names_2023.json"}}, {"type": "Feature", "geometry": {"type": "Point", "coordinates": [-79.86406884300122, 43.57352671196573]}, "properties": {"name": "Milton East—Halton Hills South", "geo_code": "35060", "source": "fed_boundaries_2023.geojson+fed_names_2023.json"}}, {"type": "Feature", "geometry": {"type": "Point", "coordinates": [-79.65725839933756, 43.58071507133469]}, "properties": {"name": "Mississauga Centre", "geo_code": "35061", "source": "fed_boundaries_2023.geojson+fed_names_2023.json"}}, {"type": "Feature", "geometry": {"type": "Point", "coordinates": [-79.6051818480446, 43.60964910420606]}, "properties": {"name": "Mississauga East—Cooksville", "geo_code": "35062", "source": "fed_boundaries_2023.geojson+fed_names_2023.json"}}, {"type": "Feature", "geometry": {"type": "Point", "coordinates": [-79.7088844997321, 43.54440626808077]}, "properties": {"name": "Mississauga—Erin Mills", "geo_code": "35063", "source": "fed_boundaries_2023.geojson+fed_names_2023.json"}}, {"type": "Feature", "geometry": {"type": "Point", "coordinates": [-79.5997926706533, 43.54095457640568]}, "properties": {"name": "Mississauga—Lakeshore", "geo_code": "35064", "source": "fed_boundaries_2023.geojson+fed_names_2023.json"}}, {"type": "Feature", "geometry": {"type": "Point", "coordinates": [-79.66049747048801, 43.65689099855895]}, "properties": {"name": "Mississauga—Malton", "geo_code": "35065", "source": "fed_boundaries_2023.geojson+fed_names_2023.json"}}, {"type": "Feature", "geometry": {"type": "Point", "coordinates": [-79.74523179575583, 43.58730717089356]}, "properties": {"name": "Mississauga—Streetsville", "geo_code": "35066", "source": "fed_boundaries_2023.geojson+fed_names_2023.json"}}, {"type": "Feature", "geometry": {"type": "Point", "coordinates": [-75.74726748668675, 45.290695616615295]}, "properties": {"name": "Nepean", "geo_code": "35067", "source": "fed_boundaries_2023.geojson+fed_names_2023.json"}}, {"type": "Feature", "geometry": {"type": "Point", "coordinates": [-79.456282861598, 44.04347892400981]}, "properties": {"name": "Newmarket—Aurora", "geo_code": "35068", "source": "fed_boundaries_2023.geojson+fed_names_2023.json"}}, {"type": "Feature", "geometry": {"type": "Point", "coordinates": [-79.60718618467435, 44.11330257547284]}, "properties": {"name": "New Tecumseth—Gwillimbury", "geo_code": "35069", "source": "fed_boundaries_2023.geojson+fed_names_2023.json"}}, {"type": "Feature", "geometry": {"type": "Point", "coordinates": [-79.1094971223215, 43.108424518601446]}, "properties": {"name": "Niagara Falls—Niagara-on-the-Lake", "geo_code": "35070", "source": "fed_boundaries_2023.geojson+fed_names_2023.json"}}, {"type": "Feature", "geometry": {"type": "Point", "coordinates": [-79.13571427019797, 42.90584195674966]}, "properties": {"name": "Niagara South", "geo_code": "35071", "source": "fed_boundaries_2023.geojson+fed_names_2023.json"}}, {"type": "Feature", "geometry": {"type": "Point", "coordinates": [-79.45409252462505, 43.03927746700848]}, "properties": {"name": "Niagara West", "geo_code": "35072", "source": "fed_boundaries_2023.geojson+fed_names_2023.json"}}, {"type": "Feature", "geometry": {"type": "Point", "coordinates": [-79.4690604960777, 46.72009620319896]}, "properties": {"name": "Nipissing—Timiskaming", "geo_code": "35073", "source": "fed_boundaries_2023.geojson+fed_names_2023.json"}}, {"type": "Feature", "geometry": {"type": "Point", "coordinates": [-78.07947915314608, 44.099035784466544]}, "properties": {"name": "Northumberland—Clarke", "geo_code": "35074", "source": "fed_boundaries_2023.geojson+fed_names_2023.json"}}, {"type": "Feature", "geometry": {"type": "Point", "coordinates": [-79.70193774095438, 43.48092973629288]}, "properties": {"name": "Oakville East", "geo_code": "35075", "source": "fed_boundaries_2023.geojson+fed_names_2023.json"}}, {"type": "Feature", "geometry": {"type": "Point", "coordinates": [-79.73440788635548, 43.425407514190866]}, "properties": {"name": "Oakville West", "geo_code": "35076", "source": "fed_boundaries_2023.geojson+fed_names_2023.json"}}, {"type": "Feature", "geometry": {"type": "Point", "coordinates": [-75.50285434080318, 45.46229643663503]}, "properties": {"name": "Orléans", "geo_code": "35077", "source": "fed_boundaries_2023.geojson+fed_names_2023.json"}}, {"type": "Feature", "geometry": {"type": "Point", "coordinates": [-78.84865328946734, 43.88494387539912]}, "properties": {"name": "Oshawa", "geo_code": "35078", "source": "fed_boundaries_2023.geojson+fed_names_2023.json"}}, {"type": "Feature", "geometry": {"type": "Point", "coordinates": [-75.70758548594188, 45.391548437218965]}, "properties": {"name": "Ottawa Centre", "geo_code": "35079", "source": "fed_boundaries_2023.geojson+fed_names_2023.json"}}, {"type": "Feature", "geometry": {"type": "Point", "coordinates": [-75.63209503455877, 45.35337352567783]}, "properties": {"name": "Ottawa South", "geo_code": "35080", "source": "fed_boundaries_2023.geojson+fed_names_2023.json"}}, {"type": "Feature", "geometry": {"type": "Point", "coordinates": [-75.62685789376059, 45.44306840071957]}, "properties": {"name": "Ottawa—Vanier—Gloucester", "geo_code": "35081", "source": "fed_boundaries_2023.geojson+fed_names_2023.json"}}, {"type": "Feature", "geometry": {"type": "Point", "coordinates": [-75.78377520388946, 45.36040394242421]}, "properties": {"name": "Ottawa West—Nepean", "geo_code": "35082", "source": "fed_boundaries_2023.geojson+fed_names_2023.json"}}, {"type": "Feature", "geometry": {"type": "Point", "coordinates": [-80.76885647341095, 43.10942618770755]}, "properties": {"name": "Oxford", "geo_code": "35083", "source": "fed_boundaries_2023.geojson+fed_names_2023.json"}}, {"type": "Feature", "geometry": {"type": "Point", "coordinates": [-79.94634402812451, 45.45896987015849]}, "properties": {"name": "Parry Sound—Muskoka", "geo_code": "35084", "source": "fed_boundaries_2023.geojson+fed_names_2023.json"}}, {"type": "Feature", "geometry": {"type": "Point", "coordinates": [-80.90497025751226, 43.62729364328119]}, "properties": {"name": "Perth—Wellington", "geo_code": "35085", "source": "fed_boundaries_2023.geojson+fed_names_2023.json"}}, {"type": "Feature", "geometry": {"type": "Point", "coordinates": [-78.11450563003913, 44.43181363326812]}, "properties": {"name": "Peterborough", "geo_code": "35086", "source": "fed_boundaries_2023.geojson+fed_names_2023.json"}}, {"type": "Feature", "geometry": {"type": "Point", "coordinates": [-79.08860444162444, 43.9260610876624]}, "properties": {"name": "Pickering—Brooklin", "geo_code": "35087", "source": "fed_boundaries_2023.geojson+fed_names_2023.json"}}, {"type": "Feature", "geometry": {"type": "Point", "coordinates": [-75.01630407688252, 45.45142927502358]}, "properties": {"name": "Prescott—Russell—Cumberland", "geo_code": "35088", "source": "fed_boundaries_2023.geojson+fed_names_2023.json"}}, {"type": "Feature", "geometry": {"type": "Point", "coordinates": [-79.41764514622889, 43.86439662426907]}, "properties": {"name": "Richmond Hill South", "geo_code": "35089", "source": "fed_boundaries_2023.geojson+fed_names_2023.json"}}, {"type": "Feature", "geometry": {"type": "Point", "coordinates": [-82.17190755082669, 42.87903704345499]}, "properties": {"name": "Sarnia—Lambton—Bkejwanong", "geo_code": "35090", "source": "fed_boundaries_2023.geojson+fed_names_2023.json"}}, {"type": "Feature", "geometry": {"type": "Point", "coordinates": [-84.075847490677, 47.58681765770181]}, "properties": {"name": "Sault Ste. Marie—Algoma", "geo_code": "35091", "source": "fed_boundaries_2023.geojson+fed_names_2023.json"}}, {"type": "Feature", "geometry": {"type": "Point", "coordinates": [-79.31347228485326, 43.794902562712316]}, "properties": {"name": "Scarborough—Agincourt", "geo_code": "35092", "source": "fed_boundaries_2023.geojson+fed_names_2023.json"}}, {"type": "Feature", "geometry": {"type": "Point", "coordinates": [-79.3037036896494, 43.748896201071986]}, "properties": {"name": "Scarborough Centre—Don Valley East", "geo_code": "35093", "source": "fed_boundaries_2023.geojson+fed_names_2023.json"}}, {"type": "Feature", "geometry": {"type": "Point", "coordinates": [-79.17797282078624, 43.798052282356075]}, "properties": {"name": "Scarborough—Guildwood—Rouge Park", "geo_code": "35094", "source": "fed_boundaries_2023.geojson+fed_names_2023.json"}}, {"type": "Feature", "geometry": {"type": "Point", "coordinates": [-79.24954689761151, 43.80940391951499]}, "properties": {"name": "Scarborough North", "geo_code": "35095", "source": "fed_boundaries_2023.geojson+fed_names_2023.json"}}, {"type": "Feature", "geometry": {"type": "Point", "coordinates": [-79.25573412272219, 43.714424689201984]}, "properties": {"name": "Scarborough Southwest", "geo_code": "35096", "source": "fed_boundaries_2023.geojson+fed_names_2023.json"}}, {"type": "Feature", "geometry": {"type": "Point", "coordinates": [-79.23813973448499, 43.7625763499811]}, "properties": {"name": "Scarborough—Woburn", "geo_code": "35097", "source": "fed_boundaries_2023.geojson+fed_names_2023.json"}}, {"type": "Feature", "geometry": {"type": "Point", "coordinates": [-80.16431825915198, 44.44129756066006]}, "properties": {"name": "Simcoe—Grey", "geo_code": "35098", "source": "fed_boundaries_2023.geojson+fed_names_2023.json"}}, {"type": "Feature", "geometry": {"type": "Point", "coordinates": [-79.78342832592665, 44.72928329401942]}, "properties": {"name": "Simcoe North", "geo_code": "35099", "source": "fed_boundaries_2023.geojson+fed_names_2023.json"}}, {"type": "Feature", "geometry": {"type": "Point", "coordinates": [-79.38493297590303, 43.63222378187939]}, "properties": {"name": "Spadina—Harbourfront", "geo_code": "35100", "source": "fed_boundaries_2023.geojson+fed_names_2023.json"}}, {"type": "Feature", "geometry": {"type": "Point", "coordinates": [-79.23985323235635, 43.18775701207095]}, "properties": {"name": "St. Catharines", "geo_code": "35101", "source": "fed_boundaries_2023.geojson+fed_names_2023.json"}}, {"type": "Feature", "geometry": {"type": "Point", "coordinates": [-74.93779075264288, 45.14577742286759]}, "properties": {"name": "Stormont—Dundas—Glengarry", "geo_code": "35102", "source": "fed_boundaries_2023.geojson+fed_names_2023.json"}}, {"type": "Feature", "geometry": {"type": "Point", "coordinates": [-80.89409437594111, 46.491786915060764]}, "properties": {"name": "Sudbury", "geo_code": "35103", "source": "fed_boundaries_2023.geojson+fed_names_2023.json"}}, {"type": "Feature", "geometry": {"type": "Point", "coordinates": [-81.52658967090653, 46.66394553367701]}, "properties": {"name": "Sudbury East—Manitoulin—Nickel Belt", "geo_code": "35104", "source": "fed_boundaries_2023.geojson+fed_names_2023.json"}}, {"type": "Feature", "geometry": {"type": "Point", "coordinates": [-79.46679928857955, 43.651418875893874]}, "properties": {"name": "Taiaiako'n—Parkdale—High Park", "geo_code": "35105", "source": "fed_boundaries_2023.geojson+fed_names_2023.json"}}, {"type": "Feature", "geometry": {"type": "Point", "coordinates": [-79.47741546359828, 43.81442393527677]}, "properties": {"name": "Thornhill", "geo_code": "35106", "source": "fed_boundaries_2023.geojson+fed_names_2023.json"}}, {"type": "Feature", "geometry": {"type": "Point", "coordinates": [-91.42052912904842, 48.828248418836196]}, "properties": {"name": "Thunder Bay—Rainy River", "geo_code": "35107", "source": "fed_boundaries_2023.geojson+fed_names_2023.json"}}, {"type": "Feature", "geometry": {"type": "Point", "coordinates": [-87.37758542233684, 50.200329012965305]}, "properties": {"name": "Thunder Bay—Superior North", "geo_code": "35108", "source": "fed_boundaries_2023.geojson+fed_names_2023.json"}}, {"type": "Feature", "geometry": {"type": "Point", "coordinates": [-79.36838965261153, 43.659717139854656]}, "properties": {"name": "Toronto Centre", "geo_code": "35109", "source": "fed_boundaries_2023.geojson+fed_names_2023.json"}}, {"type": "Feature", "geometry": {"type": "Point", "coordinates": [-79.3381406352302, 43.660662348969254]}, "properties": {"name": "Toronto—Danforth", "geo_code": "35110", "source": "fed_boundaries_2023.geojson+fed_names_2023.json"}}, {"type": "Feature", "geometry": {"type": "Point", "coordinates": [-79.40602085919724, 43.6918396193466]}, "properties": {"name": "Toronto—St. Paul's", "geo_code": "35111", "source": "fed_boundaries_2023.geojson+fed_names_2023.json"}}, {"type": "Feature", "geometry": {"type": "Point", "coordinates": [-79.39675390454376, 43.66668766184941]}, "properties": {"name": "University—Rosedale", "geo_code": "35112", "source": "fed_boundaries_2023.geojson+fed_names_2023.json"}}, {"type": "Feature", "geometry": {"type": "Point", "coordinates": [-79.59856809122326, 43.80340245555247]}, "properties": {"name": "Vaughan—Woodbridge", "geo_code": "35113", "source": "fed_boundaries_2023.geojson+fed_names_2023.json"}}, {"type": "Feature", "geometry": {"type": "Point", "coordinates": [-80.54467311289676, 43.480318592130175]}, "properties": {"name": "Waterloo", "geo_code": "35114", "source": "fed_boundaries_2023.geojson+fed_names_2023.json"}}, {"type": "Feature", "geometry": {"type": "Point", "coordinates": [-80.22530702236021, 43.64421111597205]}, "properties": {"name": "Wellington—Halton Hills North", "geo_code": "35115", "source": "fed_boundaries_2023.geojson+fed_names_2023.json"}}, {"type": "Feature", "geometry": {"type": "Point", "coordinates": [-78.95121870827151, 43.898820041198206]}, "properties": {"name": "Whitby", "geo_code": "35116", "source": "fed_boundaries_2023.geojson+fed_names_2023.json"}}, {"type": "Feature", "geometry": {"type": "Point", "coordinates": [-79.41646415787866, 43.776825497224245]}, "properties": {"name": "Willowdale", "geo_code": "35117", "source": "fed_boundaries_2023.geojson+fed_names_2023.json"}}, {"type": "Feature", "geometry": {"type": "Point", "coordinates": [-82.88791055086507, 42.28509818835987]}, "properties": {"name": "Windsor—Tecumseh—Lakeshore", "geo_code": "35118", "source": "fed_boundaries_2023.geojson+fed_names_2023.json"}}, {"type": "Feature", "geometry": {"type": "Point", "coordinates": [-83.030464525263, 42.2782242981208]}, "properties": {"name": "Windsor West", "geo_code": "35119", "source": "fed_boundaries_2023.geojson+fed_names_2023.json"}}, {"type": "Feature", "geometry": {"type": "Point", "coordinates": [-79.46782713276606, 43.75255372496454]}, "properties": {"name": "York Centre", "geo_code": "35120", "source": "fed_boundaries_2023.geojson+fed_names_2023.json"}}, {"type": "Feature", "geometry": {"type": "Point", "coordinates": [-79.16659019626303, 44.21608534859814]}, "properties": {"name": "York—Durham", "geo_code": "35121", "source": "fed_boundaries_2023.geojson+fed_names_2023.json"}}, {"type": "Feature", "geometry": {"type": "Point", "coordinates": [-79.49939538027505, 43.69751467667847]}, "properties": {"name": "York South—Weston—Etobicoke", "geo_code": "35122", "source": "fed_boundaries_2023.geojson+fed_names_2023.json"}}, {"type": "Feature", "geometry": {"type": "Point", "coordinates": [-100.06465044662143, 49.433484898716486]}, "properties": {"name": "Brandon—Souris", "geo_code": "46001", "source": "fed_boundaries_2023.geojson+fed_names_2023.json"}}, {"type": "Feature", "geometry": {"type": "Point", "coordinates": [-97.09484225780434, 55.939800305248845]}, "properties": {"name": "Churchill—Keewatinook Aski", "geo_code": "46002", "source": "fed_boundaries_2023.geojson+fed_names_2023.json"}}, {"type": "Feature", "geometry": {"type": "Point", "coordinates": [-96.9559358953821, 49.88750971253806]}, "properties": {"name": "Elmwood—Transcona", "geo_code": "46003", "source": "fed_boundaries_2023.geojson+fed_names_2023.json"}}, {"type": "Feature", "geometry": {"type": "Point", "coordinates": [-97.00287613590208, 49.987904730357805]}, "properties": {"name": "Kildonan—St. Paul", "geo_code": "46004", "source": "fed_boundaries_2023.geojson+fed_names_2023.json"}}, {"type": "Feature", "geometry": {"type": "Point", "coordinates": [-97.97014153959854, 49.57557148812532]}, "properties": {"name": "Portage—Lisgar", "geo_code": "46005", "source": "fed_boundaries_2023.geojson+fed_names_2023.json"}}, {"type": "Feature", "geometry": {"type": "Point", "coordinates": [-96.11065402539703, 49.55404148859167]}, "properties": {"name": "Provencher", "geo_code": "46006", "source": "fed_boundaries_2023.geojson+fed_names_2023.json"}}, {"type": "Feature", "geometry": {"type": "Point", "coordinates": [-100.2706549684653, 51.26049960501356]}, "properties": {"name": "Riding Mountain", "geo_code": "46007", "source": "fed_boundaries_2023.geojson+fed_names_2023.json"}}, {"type": "Feature", "geometry": {"type": "Point", "coordinates": [-97.07744799180311, 49.85052735252997]}, "properties": {"name": "St. Boniface—St. Vital", "geo_code": "46008", "source": "fed_boundaries_2023.geojson+fed_names_2023.json"}}, {"type": "Feature", "geometry": {"type": "Point", "coordinates": [-97.36028912630971, 50.68527025860452]}, "properties": {"name": "Selkirk—Interlake—Eastman", "geo_code": "46009", "source": "fed_boundaries_2023.geojson+fed_names_2023.json"}}, {"type": "Feature", "geometry": {"type": "Point", "coordinates": [-97.17636418967729, 49.900828406807655]}, "properties": {"name": "Winnipeg Centre", "geo_code": "46010", "source": "fed_boundaries_2023.geojson+fed_names_2023.json"}}, {"type": "Feature", "geometry": {"type": "Point", "coordinates": [-97.1820176288898, 49.946353256308015]}, "properties": {"name": "Winnipeg North", "geo_code": "46011", "source": "fed_boundaries_2023.geojson+fed_names_2023.json"}}, {"type": "Feature", "geometry": {"type": "Point", "coordinates": [-97.14273401482842, 49.77724548548276]}, "properties": {"name": "Winnipeg South", "geo_code": "46012", "source": "fed_boundaries_2023.geojson+fed_names_2023.json"}}, {"type": "Feature", "geometry": {"type": "Point", "coordinates": [-97.1774216385442, 49.84438749712963]}, "properties": {"name": "Winnipeg South Centre", "geo_code": "46013", "source": "fed_boundaries_2023.geojson+fed_names_2023.json"}}, {"type": "Feature", "geometry": {"type": "Point", "coordinates": [-97.38683759587171, 49.9608323665013]}, "properties": {"name": "Winnipeg West", "geo_code": "46014", "source": "fed_boundaries_2023.geojson+fed_names_2023.json"}}, {"type": "Feature", "geometry": {"type": "Point", "coordinates": [-108.79961255157032, 53.482576140453475]}, "properties": {"name": "Battlefords—Lloydminster—Meadow Lake", "geo_code": "47001", "source": "fed_boundaries_2023.geojson+fed_names_2023.json"}}, {"type": "Feature", "geometry": {"type": "Point", "coordinates": [-106.38713255990803, 52.54513154894657]}, "properties": {"name": "Carlton Trail—Eagle Creek", "geo_code": "47002", "source": "fed_boundaries_2023.geojson+fed_names_2023.json"}}, {"type": "Feature", "geometry": {"type": "Point", "coordinates": [-105.81116031083509, 56.96960240421394]}, "properties": {"name": "Desnethé—Missinippi—Churchill River", "geo_code": "47003", "source": "fed_boundaries_2023.geojson+fed_names_2023.json"}}, {"type": "Feature", "geometry": {"type": "Point", "coordinates": [-105.68003363866853, 50.9253442440762]}, "properties": {"name": "Moose Jaw—Lake Centre—Lanigan", "geo_code": "47004", "source": "fed_boundaries_2023.geojson+fed_names_2023.json"}}, {"type": "Feature", "geometry": {"type": "Point", "coordinates": [-105.55334551533099, 53.495484280831846]}, "properties": {"name": "Prince Albert", "geo_code": "47005", "source": "fed_boundaries_2023.geojson+fed_names_2023.json"}}, {"type": "Feature", "geometry": {"type": "Point", "coordinates": [-104.6878087958913, 50.4576638664714]}, "properties": {"name": "Regina—Lewvan", "geo_code": "47006", "source": "fed_boundaries_2023.geojson+fed_names_2023.json"}}, {"type": "Feature", "geometry": {"type": "Point", "coordinates": [-103.93888439866095, 51.02110066976125]}, "properties": {"name": "Regina—Qu'Appelle", "geo_code": "47007", "source": "fed_boundaries_2023.geojson+fed_names_2023.json"}}, {"type": "Feature", "geometry": {"type": "Point", "coordinates": [-104.55672343088169, 50.43324231797951]}, "properties": {"name": "Regina—Wascana", "geo_code": "47008", "source": "fed_boundaries_2023.geojson+fed_names_2023.json"}}, {"type": "Feature", "geometry": {"type": "Point", "coordinates": [-106.59201076444106, 52.10513785480232]}, "properties": {"name": "Saskatoon South", "geo_code": "47009", "source": "fed_boundaries_2023.geojson+fed_names_2023.json"}}, {"type": "Feature", "geometry": {"type": "Point", "coordinates": [-106.58769393265771, 52.15852881205091]}, "properties": {"name": "Saskatoon—University", "geo_code": "47010", "source": "fed_boundaries_2023.geojson+fed_names_2023.json"}}, {"type": "Feature", "geometry": {"type": "Point", "coordinates": [-106.70743821618805, 52.1553015509489]}, "properties": {"name": "Saskatoon West", "geo_code": "47011", "source": "fed_boundaries_2023.geojson+fed_names_2023.json"}}, {"type": "Feature", "geometry": {"type": "Point", "coordinates": [-103.56495906010284, 49.64990150977337]}, "properties": {"name": "Souris—Moose Mountain", "geo_code": "47012", "source": "fed_boundaries_2023.geojson+fed_names_2023.json"}}, {"type": "Feature", "geometry": {"type": "Point", "coordinates": [-108.4231919317467, 50.60114895451369]}, "properties": {"name": "Swift Current—Grasslands—Kindersley", "geo_code": "47013", "source": "fed_boundaries_2023.geojson+fed_names_2023.json"}}, {"type": "Feature", "geometry": {"type": "Point", "coordinates": [-102.79766708477479, 52.052839296112076]}, "properties": {"name": "Yorkton—Melville", "geo_code": "47014", "source": "fed_boundaries_2023.geojson+fed_names_2023.json"}}, {"type": "Feature", "geometry": {"type": "Point", "coordinates": [-114.1550624696555, 51.24407619825585]}, "properties": {"name": "Airdrie—Cochrane", "geo_code": "48001", "source": "fed_boundaries_2023.geojson+fed_names_2023.json"}}, {"type": "Feature", "geometry": {"type": "Point", "coordinates": [-111.59801529377734, 52.055538119220124]}, "properties": {"name": "Battle River—Crowfoot", "geo_code": "48002", "source": "fed_boundaries_2023.geojson+fed_names_2023.json"}}, {"type": "Feature", "geometry": {"type": "Point", "coordinates": [-112.52848696207461, 50.604440222168456]}, "properties": {"name": "Bow River", "geo_code": "48003", "source": "fed_boundaries_2023.geojson+fed_names_2023.json"}}, {"type": "Feature", "geometry": {"type": "Point", "coordinates": [-114.06908292533292, 51.02269265217128]}, "properties": {"name": "Calgary Centre", "geo_code": "48004", "source": "fed_boundaries_2023.geojson+fed_names_2023.json"}}, {"type": "Feature", "geometry": {"type": "Point", "coordinates": [-114.11702022347005, 51.075482346920566]}, "properties": {"name": "Calgary Confederation", "geo_code": "48005", "source": "fed_boundaries_2023.geojson+fed_names_2023.json"}}, {"type": "Feature", "geometry": {"type": "Point", "coordinates": [-114.20749196014137, 51.14498103534868]}, "properties": {"name": "Calgary Crowfoot", "geo_code": "48006", "source": "fed_boundaries_2023.geojson+fed_names_2023.json"}}, {"type": "Feature", "geometry": {"type": "Point", "coordinates": [-113.95995097616577, 51.012535947107644]}, "properties": {"name": "Calgary East", "geo_code": "48007", "source": "fed_boundaries_2023.geojson+fed_names_2023.json"}}, {"type": "Feature", "geometry": {"type": "Point", "coordinates": [-114.12364824657206, 50.9379535645687]}, "properties": {"name": "Calgary Heritage", "geo_code": "48008", "source": "fed_boundaries_2023.geojson+fed_names_2023.json"}}, {"type": "Feature", "geometry": {"type": "Point", "coordinates": [-113.97928194861736, 51.10744515820245]}, "properties": {"name": "Calgary McKnight", "geo_code": "48009", "source": "fed_boundaries_2023.geojson+fed_names_2023.json"}}, {"type": "Feature", "geometry": {"type": "Point", "coordinates": [-114.04043614207455, 50.909817621107514]}, "properties": {"name": "Calgary Midnapore", "geo_code": "48010", "source": "fed_boundaries_2023.geojson+fed_names_2023.json"}}, {"type": "Feature", "geometry": {"type": "Point", "coordinates": [-114.09929893143169, 51.124260822699746]}, "properties": {"name": "Calgary Nose Hill", "geo_code": "48011", "source": "fed_boundaries_2023.geojson+fed_names_2023.json"}}, {"type": "Feature", "geometry": {"type": "Point", "coordinates": [-113.92485592033215, 50.91127382548057]}, "properties": {"name": "Calgary Shepard", "geo_code": "48012", "source": "fed_boundaries_2023.geojson+fed_names_2023.json"}}, {"type": "Feature", "geometry": {"type": "Point", "coordinates": [-114.1946155496882, 51.04811999000831]}, "properties": {"name": "Calgary Signal Hill", "geo_code": "48013", "source": "fed_boundaries_2023.geojson+fed_names_2023.json"}}, {"type": "Feature", "geometry": {"type": "Point", "coordinates": [-114.02975646764133, 51.1758985358401]}, "properties": {"name": "Calgary Skyview", "geo_code": "48014", "source": "fed_boundaries_2023.geojson+fed_names_2023.json"}}, {"type": "Feature", "geometry": {"type": "Point", "coordinates": [-113.54529909611992, 53.55853660703039]}, "properties": {"name": "Edmonton Centre", "geo_code": "48015", "source": "fed_boundaries_2023.geojson+fed_names_2023.json"}}, {"type": "Feature", "geometry": {"type": "Point", "coordinates": [-113.47790865676295, 53.42629142641753]}, "properties": {"name": "Edmonton Gateway", "geo_code": "48016", "source": "fed_boundaries_2023.geojson+fed_names_2023.json"}}, {"type": "Feature", "geometry": {"type": "Point", "coordinates": [-113.45836578433834, 53.583096145605104]}, "properties": {"name": "Edmonton Griesbach", "geo_code": "48017", "source": "fed_boundaries_2023.geojson+fed_names_2023.json"}}, {"type": "Feature", "geometry": {"type": "Point", "coordinates": [-113.36985367418325, 53.64419829830137]}, "properties": {"name": "Edmonton Manning", "geo_code": "48018", "source": "fed_boundaries_2023.geojson+fed_names_2023.json"}}, {"type": "Feature", "geometry": {"type": "Point", "coordinates": [-113.61738963292564, 53.582299877653156]}, "properties": {"name": "Edmonton Northwest", "geo_code": "48019", "source": "fed_boundaries_2023.geojson+fed_names_2023.json"}}, {"type": "Feature", "geometry": {"type": "Point", "coordinates": [-113.59133130962874, 53.40456455145972]}, "properties": {"name": "Edmonton Riverbend", "geo_code": "48020", "source": "fed_boundaries_2023.geojson+fed_names_2023.json"}}, {"type": "Feature", "geometry": {"type": "Point", "coordinates": [-113.3878423864885, 53.43154059926331]}, "properties": {"name": "Edmonton Southeast", "geo_code": "48021", "source": "fed_boundaries_2023.geojson+fed_names_2023.json"}}, {"type": "Feature", "geometry": {"type": "Point", "coordinates": [-113.45729683373636, 53.51024454076733]}, "properties": {"name": "Edmonton Strathcona", "geo_code": "48022", "source": "fed_boundaries_2023.geojson+fed_names_2023.json"}}, {"type": "Feature", "geometry": {"type": "Point", "coordinates": [-113.6362977991792, 53.475837041326585]}, "properties": {"name": "Edmonton West", "geo_code": "48023", "source": "fed_boundaries_2023.geojson+fed_names_2023.json"}}, {"type": "Feature", "geometry": {"type": "Point", "coordinates": [-113.88656086806898, 49.975713500900575]}, "properties": {"name": "Foothills", "geo_code": "48024", "source": "fed_boundaries_2023.geojson+fed_names_2023.json"}}, {"type": "Feature", "geometry": {"type": "Point", "coordinates": [-112.14198003535327, 57.38423304328047]}, "properties": {"name": "Fort McMurray—Cold Lake", "geo_code": "48025", "source": "fed_boundaries_2023.geojson+fed_names_2023.json"}}, {"type": "Feature", "geometry": {"type": "Point", "coordinates": [-118.68999323840195, 56.43934454373497]}, "properties": {"name": "Grande Prairie", "geo_code": "48026", "source": "fed_boundaries_2023.geojson+fed_names_2023.json"}}, {"type": "Feature", "geometry": {"type": "Point", "coordinates": [-111.7822786698161, 54.010274100840654]}, "properties": {"name": "Lakeland", "geo_code": "48027", "source": "fed_boundaries_2023.geojson+fed_names_2023.json"}}, {"type": "Feature", "geometry": {"type": "Point", "coordinates": [-113.88101396007941, 53.0741204690636]}, "properties": {"name": "Leduc—Wetaskiwin", "geo_code": "48028", "source": "fed_boundaries_2023.geojson+fed_names_2023.json"}}, {"type": "Feature", "geometry": {"type": "Point", "coordinates": [-112.76762073974167, 49.84373642970752]}, "properties": {"name": "Lethbridge", "geo_code": "48029", "source": "fed_boundaries_2023.geojson+fed_names_2023.json"}}, {"type": "Feature", "geometry": {"type": "Point", "coordinates": [-111.23413686525507, 49.6706160524986]}, "properties": {"name": "Medicine Hat—Cardston—Warner", "geo_code": "48030", "source": "fed_boundaries_2023.geojson+fed_names_2023.json"}}, {"type": "Feature", "geometry": {"type": "Point", "coordinates": [-115.10046134249151, 53.481458137549815]}, "properties": {"name": "Parkland", "geo_code": "48031", "source": "fed_boundaries_2023.geojson+fed_names_2023.json"}}, {"type": "Feature", "geometry": {"type": "Point", "coordinates": [-116.3947679943705, 57.21311484371851]}, "properties": {"name": "Peace River—Westlock", "geo_code": "48032", "source": "fed_boundaries_2023.geojson+fed_names_2023.json"}}, {"type": "Feature", "geometry": {"type": "Point", "coordinates": [-113.94588495101807, 52.31107668963882]}, "properties": {"name": "Ponoka—Didsbury", "geo_code": "48033", "source": "fed_boundaries_2023.geojson+fed_names_2023.json"}}, {"type": "Feature", "geometry": {"type": "Point", "coordinates": [-113.46175417291602, 52.132141893036135]}, "properties": {"name": "Red Deer", "geo_code": "48034", "source": "fed_boundaries_2023.geojson+fed_names_2023.json"}}, {"type": "Feature", "geometry": {"type": "Point", "coordinates": [-113.10224444328594, 53.572671858939714]}, "properties": {"name": "Sherwood Park—Fort Saskatchewan", "geo_code": "48035", "source": "fed_boundaries_2023.geojson+fed_names_2023.json"}}, {"type": "Feature", "geometry": {"type": "Point", "coordinates": [-114.0483660909566, 53.81711860326362]}, "properties": {"name": "St. Albert—Sturgeon River", "geo_code": "48036", "source": "fed_boundaries_2023.geojson+fed_names_2023.json"}}, {"type": "Feature", "geometry": {"type": "Point", "coordinates": [-116.85961885787489, 52.795438548954266]}, "properties": {"name": "Yellowhead", "geo_code": "48037", "source": "fed_boundaries_2023.geojson+fed_names_2023.json"}}, {"type": "Feature", "geometry": {"type": "Point", "coordinates": [-122.48553700880052, 49.03792782445865]}, "properties": {"name": "Abbotsford—South Langley", "geo_code": "59001", "source": "fed_boundaries_2023.geojson+fed_names_2023.json"}}, {"type": "Feature", "geometry": {"type": "Point", "coordinates": [-122.96614016542503, 49.245163623310575]}, "properties": {"name": "Burnaby Central", "geo_code": "59002", "source": "fed_boundaries_2023.geojson+fed_names_2023.json"}}, {"type": "Feature", "geometry": {"type": "Point", "coordinates": [-122.96701162745448, 49.34283447293119]}, "properties": {"name": "Burnaby North—Seymour", "geo_code": "59003", "source": "fed_boundaries_2023.geojson+fed_names_2023.json"}}, {"type": "Feature", "geometry": {"type": "Point", "coordinates": [-123.15065000524109, 52.488306192042444]}, "properties": {"name": "Cariboo—Prince George", "geo_code": "59004", "source": "fed_boundaries_2023.geojson+fed_names_2023.json"}}, {"type": "Feature", "geometry": {"type": "Point", "coordinates": [-121.50343837509293, 49.49991500293294]}, "properties": {"name": "Chilliwack—Hope", "geo_code": "59005", "source": "fed_boundaries_2023.geojson+fed_names_2023.json"}}, {"type": "Feature", "geometry": {"type": "Point", "coordinates": [-122.72157898939564, 49.11721161115535]}, "properties": {"name": "Cloverdale—Langley City", "geo_code": "59006", "source": "fed_boundaries_2023.geojson+fed_names_2023.json"}}, {"type": "Feature", "geometry": {"type": "Point", "coordinates": [-116.0523741031631, 49.90607097790025]}, "properties": {"name": "Columbia—Kootenay—Southern Rockies", "geo_code": "59007", "source": "fed_boundaries_2023.geojson+fed_names_2023.json"}}, {"type": "Feature", "geometry": {"type": "Point", "coordinates": [-122.73126921540774, 49.43418569488681]}, "properties": {"name": "Coquitlam—Port Coquitlam", "geo_code": "59008", "source": "fed_boundaries_2023.geojson+fed_names_2023.json"}}, {"type": "Feature", "geometry": {"type": "Point", "coordinates": [-125.26916233286751, 49.21500190024729]}, "properties": {"name": "Courtenay—Alberni", "geo_code": "59009", "source": "fed_boundaries_2023.geojson+fed_names_2023.json"}}, {"type": "Feature", "geometry": {"type": "Point", "coordinates": [-124.13095281326049, 48.693910049802824]}, "properties": {"name": "Cowichan—Malahat—Langford", "geo_code": "59010", "source": "fed_boundaries_2023.geojson+fed_names_2023.json"}}, {"type": "Feature", "geometry": {"type": "Point", "coordinates": [-123.07666214049992, 49.076764320149714]}, "properties": {"name": "Delta", "geo_code": "59011", "source": "fed_boundaries_2023.geojson+fed_names_2023.json"}}, {"type": "Feature", "geometry": {"type": "Point", "coordinates": [-123.70981319828202, 48.358543101376775]}, "properties": {"name": "Esquimalt—Saanich—Sooke", "geo_code": "59012", "source": "fed_boundaries_2023.geojson+fed_names_2023.json"}}, {"type": "Feature", "geometry": {"type": "Point", "coordinates": [-122.76452916322611, 49.16017965732728]}, "properties": {"name": "Fleetwood—Port Kells", "geo_code": "59013", "source": "fed_boundaries_2023.geojson+fed_names_2023.json"}}, {"type": "Feature", "geometry": {"type": "Point", "coordinates": [-118.12016181844014, 51.292750662975656]}, "properties": {"name": "Kamloops—Shuswap—Central Rockies", "geo_code": "59014", "source": "fed_boundaries_2023.geojson+fed_names_2023.json"}}, {"type": "Feature", "geometry": {"type": "Point", "coordinates": [-120.80378469012089, 51.128759093781525]}, "properties": {"name": "Kamloops—Thompson—Nicola", "geo_code": "59015", "source": "fed_boundaries_2023.geojson+fed_names_2023.json"}}, {"type": "Feature", "geometry": {"type": "Point", "coordinates": [-118.99222107708378, 49.62180195766109]}, "properties": {"name": "Kelowna", "geo_code": "59016", "source": "fed_boundaries_2023.geojson+fed_names_2023.json"}}, {"type": "Feature", "geometry": {"type": "Point", "coordinates": [-122.5953991574079, 49.14268745120999]}, "properties": {"name": "Langley Township—Fraser Heights", "geo_code": "59017", "source": "fed_boundaries_2023.geojson+fed_names_2023.json"}}, {"type": "Feature", "geometry": {"type": "Point", "coordinates": [-122.15077316397696, 49.62214933303473]}, "properties": {"name": "Mission—Matsqui—Abbotsford", "geo_code": "59018", "source": "fed_boundaries_2023.geojson+fed_names_2023.json"}}, {"type": "Feature", "geometry": {"type": "Point", "coordinates": [-123.99093235011739, 49.12532878161155]}, "properties": {"name": "Nanaimo—Ladysmith", "geo_code": "59019", "source": "fed_boundaries_2023.geojson+fed_names_2023.json"}}, {"type": "Feature", "geometry": {"type": "Point", "coordinates": [-122.91215455043752, 49.21924276924897]}, "properties": {"name": "New Westminster—Burnaby—Maillardville", "geo_code": "59020", "source": "fed_boundaries_2023.geojson+fed_names_2023.json"}}, {"type": "Feature", "geometry": {"type": "Point", "coordinates": [-126.32523179875518, 50.68521632746869]}, "properties": {"name": "North Island—Powell River", "geo_code": "59021", "source": "fed_boundaries_2023.geojson+fed_names_2023.json"}}, {"type": "Feature", "geometry": {"type": "Point", "coordinates": [-123.0194934994369, 49.445004748937265]}, "properties": {"name": "North Vancouver—Capilano", "geo_code": "59022", "source": "fed_boundaries_2023.geojson+fed_names_2023.json"}}, {"type": "Feature", "geometry": {"type": "Point", "coordinates": [-119.70855055099786, 49.78273507460496]}, "properties": {"name": "Okanagan Lake West—South Kelowna", "geo_code": "59023", "source": "fed_boundaries_2023.geojson+fed_names_2023.json"}}, {"type": "Feature", "geometry": {"type": "Point", "coordinates": [-122.52628376481003, 49.53241632448777]}, "properties": {"name": "Pitt Meadows—Maple Ridge", "geo_code": "59024", "source": "fed_boundaries_2023.geojson+fed_names_2023.json"}}, {"type": "Feature", "geometry": {"type": "Point", "coordinates": [-122.85253517544159, 49.303877023293545]}, "properties": {"name": "Port Moody—Coquitlam", "geo_code": "59025", "source": "fed_boundaries_2023.geojson+fed_names_2023.json"}}, {"type": "Feature", "geometry": {"type": "Point", "coordinates": [-122.87911470905071, 57.05824485505579]}, "properties": {"name": "Prince George—Peace River—Northern Rockies", "geo_code": "59026", "source": "fed_boundaries_2023.geojson+fed_names_2023.json"}}, {"type": "Feature", "geometry": {"type": "Point", "coordinates": [-123.22211817632027, 49.18992585883394]}, "properties": {"name": "Richmond Centre—Marpole", "geo_code": "59027", "source": "fed_boundaries_2023.geojson+fed_names_2023.json"}}, {"type": "Feature", "geometry": {"type": "Point", "coordinates": [-123.10969316970261, 49.150212766504566]}, "properties": {"name": "Richmond East—Steveston", "geo_code": "59028", "source": "fed_boundaries_2023.geojson+fed_names_2023.json"}}, {"type": "Feature", "geometry": {"type": "Point", "coordinates": [-123.35011617222399, 48.780479381157754]}, "properties": {"name": "Saanich—Gulf Islands", "geo_code": "59029", "source": "fed_boundaries_2023.geojson+fed_names_2023.json"}}, {"type": "Feature", "geometry": {"type": "Point", "coordinates": [-119.39876354695853, 49.347854665458755]}, "properties": {"name": "Similkameen—South Okanagan—West Kootenay", "geo_code": "59030", "source": "fed_boundaries_2023.geojson+fed_names_2023.json"}}, {"type": "Feature", "geometry": {"type": "Point", "coordinates": [-129.3775933185493, 56.07278444897218]}, "properties": {"name": "Skeena—Bulkley Valley", "geo_code": "59031", "source": "fed_boundaries_2023.geojson+fed_names_2023.json"}}, {"type": "Feature", "geometry": {"type": "Point", "coordinates": [-122.79761500847135, 49.050318248530694]}, "properties": {"name": "South Surrey—White Rock", "geo_code": "59032", "source": "fed_boundaries_2023.geojson+fed_names_2023.json"}}, {"type": "Feature", "geometry": {"type": "Point", "coordinates": [-122.85635373694235, 49.19142358883985]}, "properties": {"name": "Surrey Centre", "geo_code": "59033", "source": "fed_boundaries_2023.geojson+fed_names_2023.json"}}, {"type": "Feature", "geometry": {"type": "Point", "coordinates": [-122.8543800939053, 49.135743408782304]}, "properties": {"name": "Surrey Newton", "geo_code": "59034", "source": "fed_boundaries_2023.geojson+fed_names_2023.json"}}, {"type": "Feature", "geometry": {"type": "Point", "coordinates": [-123.1346212637728, 49.293005152531514]}, "properties": {"name": "Vancouver Centre", "geo_code": "59035", "source": "fed_boundaries_2023.geojson+fed_names_2023.json"}}, {"type": "Feature", "geometry": {"type": "Point", "coordinates": [-123.06524235848272, 49.276923269224234]}, "properties": {"name": "Vancouver East", "geo_code": "59036", "source": "fed_boundaries_2023.geojson+fed_names_2023.json"}}, {"type": "Feature", "geometry": {"type": "Point", "coordinates": [-123.01486443180747, 49.21051268145052]}, "properties": {"name": "Vancouver Fraserview—South Burnaby", "geo_code": "59037", "source": "fed_boundaries_2023.geojson+fed_names_2023.json"}}, {"type": "Feature", "geometry": {"type": "Point", "coordinates": [-123.1237745822306, 49.24233162941734]}, "properties": {"name": "Vancouver Granville", "geo_code": "59038", "source": "fed_boundaries_2023.geojson+fed_names_2023.json"}}, {"type": "Feature", "geometry": {"type": "Point", "coordinates": [-123.0641365505724, 49.243656056729854]}, "properties": {"name": "Vancouver Kingsway", "geo_code": "59039", "source": "fed_boundaries_2023.geojson+fed_names_2023.json"}}, {"type": "Feature", "geometry": {"type": "Point", "coordinates": [-123.20799671609578, 49.25515367443274]}, "properties": {"name": "Vancouver Quadra", "geo_code": "59040", "source": "fed_boundaries_2023.geojson+fed_names_2023.json"}}, {"type": "Feature", "geometry": {"type": "Point", "coordinates": [-118.30628954752767, 50.1250058535569]}, "properties": {"name": "Vernon—Lake Country—Monashee", "geo_code": "59041", "source": "fed_boundaries_2023.geojson+fed_names_2023.json"}}, {"type": "Feature", "geometry": {"type": "Point", "coordinates": [-123.2857528516972, 48.37519948726845]}, "properties": {"name": "Victoria", "geo_code": "59042", "source": "fed_boundaries_2023.geojson+fed_names_2023.json"}}, {"type": "Feature", "geometry": {"type": "Point", "coordinates": [-123.36982087830044, 50.03438700778053]}, "properties": {"name": "West Vancouver—Sunshine Coast—Sea to Sky Country", "geo_code": "59043", "source": "fed_boundaries_2023.geojson+fed_names_2023.json"}}, {"type": "Feature", "geometry": {"type": "Point", "coordinates": [-135.51983696749502, 63.64657667367202]}, "properties": {"name": "Yukon", "geo_code": "60001", "source": "fed_boundaries_2023.geojson+fed_names_2023.json"}}, {"type": "Feature", "geometry": {"type": "Point", "coordinates": [-123.57319683171127, 73.1405709845561]}, "properties": {"name": "Northwest Territories", "geo_code": "61001", "source": "fed_boundaries_2023.geojson+fed_names_2023.json"}}, {"type": "Feature", "geometry": {"type": "Point", "coordinates": [-87.16991855141418, 71.51809582865975]}, "properties": {"name": "Nunavut", "geo_code": "62001", "source": "fed_boundaries_2023.geojson+fed_names_2023.json"}}]}