{"type": "FeatureCollection", "features": [{"type": "Feature", "geometry": {"type": "Point", "coordinates": [-140.8931876015021, 62.37989972455812]}, "properties": {"name": "Beaver Creek", "geo_code": "2021A00056001042", "source": "territories_geo_index.csv"}}, {"type": "Feature", "geometry": {"type": "Point", "coordinates": [-139.00929652073305, 61.35134907284312]}, "properties": {"name": "Burwash Landing", "geo_code": "2021A00056001039", "source": "territories_geo_index.csv"}}, {"type": "Feature", "geometry": {"type": "Point", "coordinates": [-134.71563473709693, 60.176741478519574]}, "properties": {"name": "Carcross", "geo_code": "2021A00056001048", "source": "territories_geo_index.csv"}}, {"type": "Feature", "geometry": {"type": "Point", "coordinates": [-134.68245215461573, 60.158991971856516]}, "properties": {"name": "Carcross 4", "geo_code": "2021A00056001008", "source": "territories_geo_index.csv"}}, {"type": "Feature", "geometry": {"type": "Point", "coordinates": [-136.25677299038657, 62.100139717940564]}, "properties": {"name": "Carmacks", "geo_code": "2021A00056001012", "source": "territories_geo_index.csv"}}, {"type": "Feature", "geometry": {"type": "Point", "coordinates": [-136.47491276755142, 60.78692805051253]}, "properties": {"name": "Champagne Landing 10", "geo_code": "2021A00056001038", "source": "territories_geo_index.csv"}}, {"type": "Feature", "geometry": {"type": "Point", "coordinates": [-139.3893360748353, 64.04639713446618]}, "properties": {"name": "Dawson", "geo_code": "2021A00056001029", "source": "territories_geo_index.csv"}}, {"type": "Feature", "geometry": {"type": "Point", "coordinates": [-138.7976717291273, 61.251781338516615]}, "properties": {"name": "Destruction Bay", "geo_code": "2021A00056001049", "source": "territories_geo_index.csv"}}, {"type": "Feature", "geometry": {"type": "Point", "coordinates": [-133.3555498714516, 62.214184273620944]}, "properties": {"name": "Faro", "geo_code": "2021A00056001004", "source": "territories_geo_index.csv"}}, {"type": "Feature", "geometry": {"type": "Point", "coordinates": [-137.5090808563958, 60.77093369634846]}, "properties": {"name": "Haines Junction", "geo_code": "2021A00056001018", "source": "territories_geo_index.csv"}}, {"type": "Feature", "geometry": {"type": "Point", "coordinates": [-135.62939521357262, 60.83688883763207]}, "properties": {"name": "Ibex Valley", "geo_code": "2021A00056001055", "source": "territories_geo_index.csv"}}, {"type": "Feature", "geometry": {"type": "Point", "coordinates": [-133.29725943975149, 60.48988034897453]}, "properties": {"name": "Johnsons Crossing", "geo_code": "2021A00056001047", "source": "territories_geo_index.csv"}}, {"type": "Feature", "geometry": {"type": "Point", "coordinates": [-135.2682696486221, 63.92243519205056]}, "properties": {"name": "Keno Hill", "geo_code": "2021A00056001052", "source": "territories_geo_index.csv"}}, {"type": "Feature", "geometry": {"type": "Point", "coordinates": [-137.85706838928076, 60.92133409163908]}, "properties": {"name": "Kloo Lake", "geo_code": "2021A00056001019", "source": "territories_geo_index.csv"}}, {"type": "Feature", "geometry": {"type": "Point", "coordinates": [-135.12704010035424, 60.98095261681236]}, "properties": {"name": "Lake Laberge 1", "geo_code": "2021A00056001010", "source": "territories_geo_index.csv"}}, {"type": "Feature", "geometry": {"type": "Point", "coordinates": [-135.40225489810285, 61.0334942119157]}, "properties": {"name": "Macpherson-Grizzly Valley", "geo_code": "2021A00056001059", "source": "territories_geo_index.csv"}}, {"type": "Feature", "geometry": {"type": "Point", "coordinates": [-134.3082690942148, 60.48719721009739]}, "properties": {"name": "Marsh Lake", "geo_code": "2021A00056001058", "source": "territories_geo_index.csv"}}, {"type": "Feature", "geometry": {"type": "Point", "coordinates": [-135.8961325617228, 63.596524532775256]}, "properties": {"name": "Mayo", "geo_code": "2021A00056001022", "source": "territories_geo_index.csv"}}, {"type": "Feature", "geometry": {"type": "Point", "coordinates": [-139.42444386092276, 64.10849037203485]}, "properties": {"name": "Moosehide Creek 2", "geo_code": "2021A00056001031", "source": "territories_geo_index.csv"}}, {"type": "Feature", "geometry": {"type": "Point", "coordinates": [-134.9279070898283, 60.41740841054955]}, "properties": {"name": "Mt. Lorne", "geo_code": "2021A00056001044", "source": "territories_geo_index.csv"}}, {"type": "Feature", "geometry": {"type": "Point", "coordinates": [-139.82302232648212, 67.57030667233012]}, "properties": {"name": "Old Crow", "geo_code": "2021A00056001043", "source": "territories_geo_index.csv"}}, {"type": "Feature", "geometry": {"type": "Point", "coordinates": [-136.5803977187789, 62.8207675693306]}, "properties": {"name": "Pelly Crossing", "geo_code": "2021A00056001041", "source": "territories_geo_index.csv"}}, {"type": "Feature", "geometry": {"type": "Point", "coordinates": [-132.45055351898014, 61.971803045848404]}, "properties": {"name": "Ross River", "geo_code": "2021A00056001037", "source": "territories_geo_index.csv"}}, {"type": "Feature", "geometry": {"type": "Point", "coordinates": [-136.69010474867693, 63.369973392847875]}, "properties": {"name": "Stewart Crossing", "geo_code": "2021A00056001050", "source": "territories_geo_index.csv"}}, {"type": "Feature", "geometry": {"type": "Point", "coordinates": [-131.04221599627743, 60.016360410886726]}, "properties": {"name": "Swift River", "geo_code": "2021A00056001046", "source": "territories_geo_index.csv"}}, {"type": "Feature", "geometry": {"type": "Point", "coordinates": [-134.28663381365362, 60.28161567643025]}, "properties": {"name": "Tagish", "geo_code": "2021A00056001036", "source": "territories_geo_index.csv"}}, {"type": "Feature", "geometry": {"type": "Point", "coordinates": [-132.76697677160567, 60.224422834972195]}, "properties": {"name": "Teslin", "geo_code": "2021A00056001006", "source": "territories_geo_index.csv"}}, {"type": "Feature", "geometry": {"type": "Point", "coordinates": [-132.74012032931398, 60.170780380663174]}, "properties": {"name": "Teslin Post 13", "geo_code": "2021A00056001007", "source": "territories_geo_index.csv"}}, {"type": "Feature", "geometry": {"type": "Point", "coordinates": [-128.9168442858807, 60.05307820249038]}, "properties": {"name": "Upper Liard", "geo_code": "2021A00056001032", "source": "territories_geo_index.csv"}}, {"type": "Feature", "geometry": {"type": "Point", "coordinates": [-128.69319971737852, 60.062020273574134]}, "properties": {"name": "Watson Lake", "geo_code": "2021A00056001003", "source": "territories_geo_index.csv"}}, {"type": "Feature", "geometry": {"type": "Point", "coordinates": [-135.06905772796972, 60.702926511250396]}, "properties": {"name": "Whitehorse", "geo_code": "2021A00056001009", "source": "territories_geo_index.csv"}}, {"type": "Feature", "geometry": {"type": "Point", "coordinates": [-135.04554951873675, 60.546773110112454]}, "properties": {"name": "Whitehorse, Unorganized", "geo_code": "2021A00056001060", "source": "territories_geo_index.csv"}}, {"type": "Feature", "geometry": {"type": "Point", "coordinates": [-135.51886108068322, 63.6837062526369]}, "properties": {"name": "Yukon, Unorganized", "geo_code": "2021A00056001045", "source": "territories_geo_index.csv"}}]}